start=new Date('2023-04-13T00:00:00.000Z').valueOf();
sats=[{"GP_ID":"229980823","PERIOD":"95.592","REF_FRAME":"TEME","RA_OF_ASC_NODE":"110.8428","CENTER_NAME":"EARTH","SEMIMAJOR_AXIS":"6925.355","SITE":"AFETR","FILE":"3886349","PERIAPSIS":"546.379","EPHEMERIS_TYPE":"0","COUNTRY_CODE":"US","CLASSIFICATION_TYPE":"U","RCS_SIZE":"LARGE","MEAN_MOTION":"15.06398048","NORAD_CAT_ID":"47578","OBJECT_NAME":"STARLINK-1980","OBJECT_ID":"2021-009AG","MEAN_MOTION_DDOT":"0.0000000000000","ECCENTRICITY":"0.00012140","REV_AT_EPOCH":"12066","EPOCH":"2023-04-12T07:19:37.150176","DECAY_DATE":null,"MEAN_MOTION_DOT":"0.00002284","APOAPSIS":"548.060","TIME_SYSTEM":"UTC","ARG_OF_PERICENTER":"93.5218","LAUNCH_DATE":"2021-02-04","TLE_LINE1":"1 47578U 21009AG  23102.30529109  .00002284  00000-0  17218-3 0  9998","MEAN_ANOMALY":"266.5910","INCLINATION":"53.0536","ELEMENT_SET_NO":"999","MEAN_ELEMENT_THEORY":"SGP4","OBJECT_TYPE":"PAYLOAD","BSTAR":"0.00017218000000","TLE_LINE2":"2 47578  53.0536 110.8428 0001214  93.5218 266.5910 15.06398048120663"},{"TIME_SYSTEM":"UTC","APOAPSIS":"548.252","MEAN_MOTION_DOT":"-0.00000598","TLE_LINE1":"1 47579U 21009AH  23102.28778498 -.00000598  00000-0 -21278-4 0  9993","ARG_OF_PERICENTER":"95.6221","LAUNCH_DATE":"2021-02-04","ECCENTRICITY":"0.00014720","MEAN_MOTION_DDOT":"0.0000000000000","DECAY_DATE":null,"REV_AT_EPOCH":"12080","EPOCH":"2023-04-12T06:54:24.622272","MEAN_ELEMENT_THEORY":"SGP4","OBJECT_TYPE":"PAYLOAD","ELEMENT_SET_NO":"999","BSTAR":"-0.00002127800000","TLE_LINE2":"2 47579  53.0537 100.9231 0001472  95.6221 264.4936 15.06393825120809","MEAN_ANOMALY":"264.4936","INCLINATION":"53.0537","FILE":"3886349","PERIAPSIS":"546.213","COUNTRY_CODE":"US","EPHEMERIS_TYPE":"0","GP_ID":"229981061","SEMIMAJOR_AXIS":"6925.367","SITE":"AFETR","PERIOD":"95.593","RA_OF_ASC_NODE":"100.9231","REF_FRAME":"TEME","CENTER_NAME":"EARTH","NORAD_CAT_ID":"47579","OBJECT_ID":"2021-009AH","OBJECT_NAME":"STARLINK-1981","CLASSIFICATION_TYPE":"U","RCS_SIZE":"LARGE","MEAN_MOTION":"15.06393825"},{"PERIAPSIS":"546.151","FILE":"3886349","COUNTRY_CODE":"US","EPHEMERIS_TYPE":"0","GP_ID":"229979825","SITE":"AFETR","SEMIMAJOR_AXIS":"6925.362","CENTER_NAME":"EARTH","PERIOD":"95.592","REF_FRAME":"TEME","RA_OF_ASC_NODE":"109.9366","NORAD_CAT_ID":"47580","OBJECT_ID":"2021-009AJ","OBJECT_NAME":"STARLINK-1982","RCS_SIZE":"LARGE","CLASSIFICATION_TYPE":"U","MEAN_MOTION":"15.06395708","TIME_SYSTEM":"UTC","MEAN_MOTION_DOT":"0.00004271","APOAPSIS":"548.302","TLE_LINE1":"1 47580U 21009AJ  23102.50801978  .00004271  00000-0  30546-3 0  9997","LAUNCH_DATE":"2021-02-04","ARG_OF_PERICENTER":"91.9659","MEAN_MOTION_DDOT":"0.0000000000000","ECCENTRICITY":"0.00015530","DECAY_DATE":null,"EPOCH":"2023-04-12T12:11:32.908992","REV_AT_EPOCH":"12069","OBJECT_TYPE":"PAYLOAD","MEAN_ELEMENT_THEORY":"SGP4","ELEMENT_SET_NO":"999","TLE_LINE2":"2 47580  53.0551 109.9366 0001553  91.9659 268.1508 15.06395708120694","BSTAR":"0.00030546000000","MEAN_ANOMALY":"268.1508","INCLINATION":"53.0551"},{"MEAN_MOTION":"15.06387527","RCS_SIZE":"LARGE","CLASSIFICATION_TYPE":"U","OBJECT_ID":"2021-009AK","OBJECT_NAME":"STARLINK-1984","NORAD_CAT_ID":"47581","SITE":"AFETR","SEMIMAJOR_AXIS":"6925.387","CENTER_NAME":"EARTH","REF_FRAME":"TEME","PERIOD":"95.593","RA_OF_ASC_NODE":"90.6214","GP_ID":"229980075","COUNTRY_CODE":"US","EPHEMERIS_TYPE":"0","PERIAPSIS":"546.333","FILE":"3886349","INCLINATION":"53.0533","MEAN_ANOMALY":"267.4643","TLE_LINE2":"2 47581  53.0533  90.6214 0001326  92.6497 267.4643 15.06387527120950","BSTAR":"-0.00006418700000","OBJECT_TYPE":"PAYLOAD","MEAN_ELEMENT_THEORY":"SGP4","ELEMENT_SET_NO":"999","DECAY_DATE":null,"EPOCH":"2023-04-12T08:31:16.343328","REV_AT_EPOCH":"12095","MEAN_MOTION_DDOT":"0.0000000000000","ECCENTRICITY":"0.00013260","TLE_LINE1":"1 47581U 21009AK  23102.35505027 -.00001237  00000-0 -64187-4 0  9997","LAUNCH_DATE":"2021-02-04","ARG_OF_PERICENTER":"92.6497","TIME_SYSTEM":"UTC","MEAN_MOTION_DOT":"-0.00001237","APOAPSIS":"548.170"},{"FILE":"3886349","PERIAPSIS":"546.203","COUNTRY_CODE":"US","EPHEMERIS_TYPE":"0","GP_ID":"229981324","SEMIMAJOR_AXIS":"6925.380","SITE":"AFETR","PERIOD":"95.593","RA_OF_ASC_NODE":"110.6803","REF_FRAME":"TEME","CENTER_NAME":"EARTH","NORAD_CAT_ID":"47582","OBJECT_ID":"2021-009AL","OBJECT_NAME":"STARLINK-1986","CLASSIFICATION_TYPE":"U","RCS_SIZE":"LARGE","MEAN_MOTION":"15.06389750","TIME_SYSTEM":"UTC","APOAPSIS":"548.287","MEAN_MOTION_DOT":"0.00001136","TLE_LINE1":"1 47582U 21009AL  23102.34214803  .00001136  00000-0  95156-4 0  9992","ARG_OF_PERICENTER":"101.5227","LAUNCH_DATE":"2021-02-04","ECCENTRICITY":"0.00015040","MEAN_MOTION_DDOT":"0.0000000000000","DECAY_DATE":null,"REV_AT_EPOCH":"12067","EPOCH":"2023-04-12T08:12:41.589792","MEAN_ELEMENT_THEORY":"SGP4","OBJECT_TYPE":"PAYLOAD","ELEMENT_SET_NO":"999","BSTAR":"0.00009515600000","TLE_LINE2":"2 47582  53.0527 110.6803 0001504 101.5227 258.5930 15.06389750120679","MEAN_ANOMALY":"258.5930","INCLINATION":"53.0527"},{"TLE_LINE2":"2 47583  53.0526 111.0769 0001302 103.7395 256.3739 15.06387224120667","BSTAR":"-0.00015559000000","ELEMENT_SET_NO":"999","OBJECT_TYPE":"PAYLOAD","MEAN_ELEMENT_THEORY":"SGP4","INCLINATION":"53.0526","MEAN_ANOMALY":"256.3739","LAUNCH_DATE":"2021-02-04","ARG_OF_PERICENTER":"103.7395","TLE_LINE1":"1 47583U 21009AM  23102.25368372 -.00002597  00000-0 -15559-3 0  9996","APOAPSIS":"548.154","MEAN_MOTION_DOT":"-0.00002597","TIME_SYSTEM":"UTC","EPOCH":"2023-04-12T06:05:18.273408","REV_AT_EPOCH":"12066","DECAY_DATE":null,"MEAN_MOTION_DDOT":"0.0000000000000","ECCENTRICITY":"0.00013020","OBJECT_NAME":"STARLINK-1987","OBJECT_ID":"2021-009AM","NORAD_CAT_ID":"47583","MEAN_MOTION":"15.06387224","CLASSIFICATION_TYPE":"U","RCS_SIZE":"LARGE","EPHEMERIS_TYPE":"0","COUNTRY_CODE":"US","FILE":"3886349","PERIAPSIS":"546.351","CENTER_NAME":"EARTH","PERIOD":"95.593","RA_OF_ASC_NODE":"111.0769","REF_FRAME":"TEME","SITE":"AFETR","SEMIMAJOR_AXIS":"6925.388","GP_ID":"229981562"},{"OBJECT_NAME":"STARLINK-1989","OBJECT_ID":"2021-009AP","NORAD_CAT_ID":"47585","MEAN_MOTION":"15.06390338","CLASSIFICATION_TYPE":"U","RCS_SIZE":"LARGE","EPHEMERIS_TYPE":"0","COUNTRY_CODE":"US","PERIAPSIS":"546.200","FILE":"3886349","RA_OF_ASC_NODE":"110.6600","PERIOD":"95.593","REF_FRAME":"TEME","CENTER_NAME":"EARTH","SEMIMAJOR_AXIS":"6925.378","SITE":"AFETR","GP_ID":"229980326","BSTAR":"0.00010372000000","TLE_LINE2":"2 47585  53.0541 110.6600 0001506  82.3086 277.8074 15.06390338120671","ELEMENT_SET_NO":"999","MEAN_ELEMENT_THEORY":"SGP4","OBJECT_TYPE":"PAYLOAD","INCLINATION":"53.0541","MEAN_ANOMALY":"277.8074","ARG_OF_PERICENTER":"82.3086","LAUNCH_DATE":"2021-02-04","TLE_LINE1":"1 47585U 21009AP  23102.34584502  .00001263  00000-0  10372-3 0  9998","MEAN_MOTION_DOT":"0.00001263","APOAPSIS":"548.286","TIME_SYSTEM":"UTC","REV_AT_EPOCH":"12067","EPOCH":"2023-04-12T08:18:01.009728","DECAY_DATE":null,"MEAN_MOTION_DDOT":"0.0000000000000","ECCENTRICITY":"0.00015060"},{"RCS_SIZE":"LARGE","CLASSIFICATION_TYPE":"U","MEAN_MOTION":"15.06394388","NORAD_CAT_ID":"47586","OBJECT_ID":"2021-009AQ","OBJECT_NAME":"STARLINK-1990","GP_ID":"229980576","SEMIMAJOR_AXIS":"6925.366","SITE":"AFETR","PERIOD":"95.592","RA_OF_ASC_NODE":"130.1414","REF_FRAME":"TEME","CENTER_NAME":"EARTH","PERIAPSIS":"546.533","FILE":"3886349","COUNTRY_CODE":"US","EPHEMERIS_TYPE":"0","MEAN_ANOMALY":"278.7200","INCLINATION":"53.0528","MEAN_ELEMENT_THEORY":"SGP4","OBJECT_TYPE":"PAYLOAD","ELEMENT_SET_NO":"999","BSTAR":"-0.00001800100000","TLE_LINE2":"2 47586  53.0528 130.1414 0001008  81.3903 278.7200 15.06394388120413","ECCENTRICITY":"0.00010080","MEAN_MOTION_DDOT":"0.0000000000000","DECAY_DATE":null,"REV_AT_EPOCH":"12041","EPOCH":"2023-04-12T11:05:11.337792","TIME_SYSTEM":"UTC","APOAPSIS":"547.929","MEAN_MOTION_DOT":"-0.00000549","TLE_LINE1":"1 47586U 21009AQ  23102.46193678 -.00000549  00000-0 -18001-4 0  9998","ARG_OF_PERICENTER":"81.3903","LAUNCH_DATE":"2021-02-04"},{"MEAN_MOTION":"15.06388619","CLASSIFICATION_TYPE":"U","RCS_SIZE":"LARGE","OBJECT_NAME":"STARLINK-1991","OBJECT_ID":"2021-009AR","NORAD_CAT_ID":"47587","PERIOD":"95.593","REF_FRAME":"TEME","RA_OF_ASC_NODE":"100.1640","CENTER_NAME":"EARTH","SEMIMAJOR_AXIS":"6925.383","SITE":"AFETR","GP_ID":"229980824","EPHEMERIS_TYPE":"0","COUNTRY_CODE":"US","PERIAPSIS":"546.248","FILE":"3886349","INCLINATION":"53.0541","MEAN_ANOMALY":"271.7592","BSTAR":"0.00000066353000","TLE_LINE2":"2 47587  53.0541 100.1640 0001444  88.3562 271.7592 15.06388619120832","ELEMENT_SET_NO":"999","MEAN_ELEMENT_THEORY":"SGP4","OBJECT_TYPE":"PAYLOAD","REV_AT_EPOCH":"12083","EPOCH":"2023-04-12T10:58:34.411008","DECAY_DATE":null,"ECCENTRICITY":"0.00014440","MEAN_MOTION_DDOT":"0.0000000000000","ARG_OF_PERICENTER":"88.3562","LAUNCH_DATE":"2021-02-04","TLE_LINE1":"1 47587U 21009AR  23102.45734272 -.00000272  00000-0  66353-6 0  9996","APOAPSIS":"548.248","MEAN_MOTION_DOT":"-0.00000272","TIME_SYSTEM":"UTC"},{"BSTAR":"0.00000036377000","TLE_LINE2":"2 47588  53.0554 111.0979 0001571  99.5584 260.5582 15.06389630120662","MEAN_ELEMENT_THEORY":"SGP4","OBJECT_TYPE":"PAYLOAD","ELEMENT_SET_NO":"999","INCLINATION":"53.0554","MEAN_ANOMALY":"260.5582","TLE_LINE1":"1 47588U 21009AS  23102.25000749 -.00000276  00000-0  36377-6 0  9997","ARG_OF_PERICENTER":"99.5584","LAUNCH_DATE":"2021-02-04","TIME_SYSTEM":"UTC","APOAPSIS":"548.333","MEAN_MOTION_DOT":"-0.00000276","DECAY_DATE":null,"REV_AT_EPOCH":"12066","EPOCH":"2023-04-12T06:00:00.647136","MEAN_MOTION_DDOT":"0.0000000000000","ECCENTRICITY":"0.00015710","OBJECT_ID":"2021-009AS","OBJECT_NAME":"STARLINK-1993","NORAD_CAT_ID":"47588","MEAN_MOTION":"15.06389630","CLASSIFICATION_TYPE":"U","RCS_SIZE":"LARGE","COUNTRY_CODE":"US","EPHEMERIS_TYPE":"0","PERIAPSIS":"546.157","FILE":"3886349","SEMIMAJOR_AXIS":"6925.380","SITE":"AFETR","REF_FRAME":"TEME","PERIOD":"95.593","RA_OF_ASC_NODE":"111.0979","CENTER_NAME":"EARTH","GP_ID":"229981062"}];
